NORAD_CAT_ID,OBJECT_NAME,OBJECT_TYPE,EPOCH,MEAN_MOTION,ECCENTRICITY,INCLINATION,RA_OF_ASC_NODE,ARG_OF_PERICENTER,MEAN_ANOMALY,BSTAR,MEAN_MOTION_DOT,MEAN_MOTION_DDOT,TLE_LINE0,TLE_LINE1,TLE_LINE2,SEMIMAJOR_AXIS,PERIOD,APOGEE,PERIGEE,DECAYED
52003.0,STARLINK-3654,PAYLOAD,2024-05-08 05:02:00,15.08838812,0.0001524,53.2147,149.0679,87.0398,273.0768,3.5227e-05,2.73e-06,0.0,0 STARLINK-3654,1 52003U 22025AZ  24129.20972691  .00000273  00000-0  35227-4 0  9990,2 52003  53.2147 149.0679 0001524  87.0398 273.0768 15.08838812121211,6917.884,95.438,540.803,538.695,0.0
52003.0,STARLINK-3654,PAYLOAD,2024-05-08 08:12:46,15.08835039,0.0001388,53.2158,148.4735,86.1867,273.9284,0.00014303,1.989e-05,0.0,0 STARLINK-3654,1 52003U 22025AZ  24129.34220889  .00001989  00000-0  14303-3 0  9996,2 52003  53.2158 148.4735 0001388  86.1867 273.9284 15.08835039119721,6917.896,95.438,540.721,538.8,0.0
52003.0,STARLINK-3654,PAYLOAD,2024-05-08 17:45:05,15.0884207,0.0001401,53.2158,146.689,83.8332,276.2819,3.4971e-05,2.69e-06,0.0,0 STARLINK-3654,1 52003U 22025AZ  24129.73964566  .00000269  00000-0  34971-4 0  9990,2 52003  53.2158 146.6890 0001401  83.8332 276.2819 15.08842070119789,6917.874,95.437,540.708,538.77,0.0
52003.0,STARLINK-3654,PAYLOAD,2024-05-09 08:03:33,15.08836523,0.0001357,53.2151,144.0153,85.7348,274.3799,0.00011534,1.548e-05,0.0,0 STARLINK-3654,1 52003U 22025AZ  24130.33580832  .00001548  00000-0  11534-3 0  9998,2 52003  53.2151 144.0153 0001357  85.7348 274.3799 15.08836523121385,6917.891,95.438,540.695,538.817,0.0
52003.0,STARLINK-3654,PAYLOAD,2024-05-09 17:35:52,15.08843554,0.0001275,53.2148,142.23,82.3575,277.7562,0.00014259,1.982e-05,0.0,0 STARLINK-3654,1 52003U 22025AZ  24130.73324498  .00001982  00000-0  14259-3 0  9995,2 52003  53.2148 142.2300 0001275  82.3575 277.7562 15.08843554119934,6917.87,95.437,540.617,538.852,0.0
52003.0,STARLINK-3654,PAYLOAD,2024-05-10 07:54:20,15.08840215,0.0001467,53.2161,139.5556,95.9469,264.1691,9.9297e-05,1.293e-05,0.0,0 STARLINK-3654,1 52003U 22025AZ  24131.32940947  .00001293  00000-0  99297-4 0  9995,2 52003  53.2161 139.5556 0001467  95.9469 264.1691 15.08840215120022,6917.88,95.438,540.76,538.73,0.0
52003.0,STARLINK-3654,PAYLOAD,2024-05-11 04:34:21,15.08842215,0.0001499,53.2165,135.69,97.2949,262.8213,0.0001005,1.312e-05,0.0,0 STARLINK-3654,1 52003U 22025AZ  24132.19053099  .00001312  00000-0  10050-3 0  9995,2 52003  53.2165 135.6900 0001499  97.2949 262.8213 15.08842215121667,6917.874,95.437,540.776,538.702,0.0
52003.0,STARLINK-3654,PAYLOAD,2024-05-11 09:20:30,15.08867135,0.0001635,53.2164,134.7983,101.6803,258.4373,0.00035865,5.429e-05,0.0,0 STARLINK-3654,1 52003U 22025AZ  24132.38923616  .00005429  00000-0  35865-3 0  9991,2 52003  53.2164 134.7983 0001635 101.6803 258.4373 15.08867135121697,6917.797,95.436,540.794,538.531,0.0
52003.0,STARLINK-3654,PAYLOAD,2024-05-12 04:25:07,15.08860073,0.0001717,53.2155,131.2275,106.9248,253.1933,0.00039064,5.938e-05,0.0,0 STARLINK-3654,1 52003U 22025AZ  24133.18411547  .00005938  00000-0  39064-3 0  9995,2 52003  53.2155 131.2275 0001717 106.9248 253.1933 15.08860073121817,6917.819,95.436,540.872,538.496,0.0
52003.0,STARLINK-3654,PAYLOAD,2024-05-12 07:35:54,15.08815735,0.0001426,53.2146,130.6345,88.8847,271.2308,-0.00083019,-0.00013467,0.0,0 STARLINK-3654,1 52003U 22025AZ  24133.31660748 -.00013467  00000-0 -83019-3 0  9996,2 52003  53.2146 130.6345 0001426  88.8847 271.2308 15.08815735121832,6917.955,95.439,540.806,538.833,0.0
52003.0,STARLINK-3654,PAYLOAD,2024-05-12 23:29:47,15.08806419,0.0001218,53.2162,127.6575,93.6416,266.4715,-6.5593e-05,-1.331e-05,0.0,0 STARLINK-3654,1 52003U 22025AZ  24133.97902109 -.00001331  00000-0 -65593-4 0  9993,2 52003  53.2162 127.6575 0001218  93.6416 266.4715 15.08806419120427,6917.983,95.44,540.691,539.005,0.0
52003.0,STARLINK-3654,PAYLOAD,2024-05-13 05:51:20,15.08812692,0.0001399,53.2159,126.4686,88.2446,271.8707,0.00054376,8.37e-05,0.0,0 STARLINK-3654,1 52003U 22025AZ  24134.24398701  .00008370  00000-0  54376-3 0  9995,2 52003  53.2159 126.4686 0001399  88.2446 271.8707 15.08812692121978,6917.964,95.439,540.797,538.861,0.0
52003.0,STARLINK-3654,PAYLOAD,2024-05-13 16:59:02,15.08828473,0.0001179,53.2164,124.3881,78.0156,282.0969,0.00093964,0.00014693,0.0,0 STARLINK-3654,1 52003U 22025AZ  24134.70767134  .00014693  00000-0  93964-3 0  9997,2 52003  53.2164 124.3881 0001179  78.0156 282.0969 15.08828473120538,6917.916,95.438,540.596,538.965,0.0
52003.0,STARLINK-3654,PAYLOAD,2024-05-14 04:06:44,15.08849737,0.0001345,53.2147,122.3069,78.9295,281.1849,0.0012188,0.00019168,0.0,0 STARLINK-3654,1 52003U 22025AZ  24135.17135088  .00019168  00000-0  12188-2 0  9996,2 52003  53.2147 122.3069 0001345  78.9295 281.1849 15.08849737122112,6917.851,95.437,540.646,538.785,0.0
52003.0,STARLINK-3654,PAYLOAD,2024-05-14 08:52:53,15.08856879,0.000134,53.2149,121.4152,77.6738,282.4404,0.0012589,0.00019813,0.0,0 STARLINK-3654,1 52003U 22025AZ  24135.37006911  .00019813  00000-0  12589-2 0  9992,2 52003  53.2149 121.4152 0001340  77.6738 282.4404 15.08856879120631,6917.829,95.436,540.621,538.767,0.0
52003.0,STARLINK-3654,PAYLOAD,2024-05-15 05:32:53,15.08866136,0.0001428,53.2148,117.5478,83.4869,276.6286,0.00067392,0.00010461,0.0,0 STARLINK-3654,1 52003U 22025AZ  24136.23117933  .00010461  00000-0  67392-3 0  9998,2 52003  53.2148 117.5478 0001428  83.4869 276.6286 15.08866136122276,6917.801,95.436,540.653,538.678,0.0
52003.0,STARLINK-3654,PAYLOAD,2024-05-15 08:43:39,15.08873434,0.0001437,53.2147,116.9527,83.9169,276.1986,0.00091869,0.00014377,0.0,0 STARLINK-3654,1 52003U 22025AZ  24136.36365659  .00014377  00000-0  91869-3 0  9998,2 52003  53.2147 116.9527 0001437  83.9169 276.1986 15.08873434120786,6917.778,95.435,540.637,538.649,0.0
52003.0,STARLINK-3654,PAYLOAD,2024-05-16 05:23:40,15.08858126,0.0001339,53.2158,113.0869,92.7344,267.3801,0.00023504,3.457e-05,0.0,0 STARLINK-3654,1 52003U 22025AZ  24137.22476906  .00003457  00000-0  23504-3 0  9990,2 52003  53.2158 113.0869 0001339  92.7344 267.3801 15.08858126122421,6917.825,95.436,540.616,538.764,0.0
52003.0,STARLINK-3654,PAYLOAD,2024-05-16 14:55:58,15.08866477,0.0001434,53.2162,111.3033,95.9127,264.2028,0.0004159,6.342e-05,0.0,0 STARLINK-3654,1 52003U 22025AZ  24137.62220293  .00006342  00000-0  41590-3 0  9991,2 52003  53.2162 111.3033 0001434  95.9127 264.2028 15.08866477120973,6917.799,95.436,540.656,538.672,0.0
52003.0,STARLINK-3654,PAYLOAD,2024-05-17 03:39:04,15.08837127,0.0001361,53.2152,108.9216,79.0659,281.0486,-0.00025042,-4.271e-05,0.0,0 STARLINK-3654,1 52003U 22025AZ  24138.15213042 -.00004271  00000-0 -25042-3 0  9999,2 52003  53.2152 108.9216 0001361  79.0659 281.0486 15.08837127122561,6917.889,95.438,540.696,538.813,0.0
52003.0,STARLINK-3654,PAYLOAD,2024-05-17 14:46:45,15.08852479,0.0001508,53.2167,106.8452,89.6808,270.4357,0.00010752,1.424e-05,0.0,0 STARLINK-3654,1 52003U 22025AZ  24138.61580342  .00001424  00000-0  10752-3 0  9997,2 52003  53.2167 106.8452 0001508  89.6808 270.4357 15.08852479121129,6917.842,95.437,540.75,538.664,0.0
52003.0,STARLINK-3654,PAYLOAD,2024-05-17 21:08:18,15.0883891,0.0001991,53.2163,105.6539,86.307,273.8149,-6.0212e-05,-1.246e-05,0.0,0 STARLINK-3654,1 52003U 22025AZ  24138.88076923 -.00001246  00000-0 -60212-4 0  9992,2 52003  53.2163 105.6539 0001991  86.3070 273.8149 15.08838910122670,6917.884,95.438,541.126,538.371,0.0
52003.0,STARLINK-3654,PAYLOAD,2024-05-18 14:37:32,15.08848056,0.0001524,53.2161,102.3823,90.4517,269.665,0.00070188,0.00010903,0.0,0 STARLINK-3654,1 52003U 22025AZ  24139.60940935  .00010903  00000-0  70188-3 0  9996,2 52003  53.2161 102.3823 0001524  90.4517 269.6650 15.08848056121279,6917.856,95.437,540.775,538.666,0.0
52003.0,STARLINK-3654,PAYLOAD,2024-05-19 03:20:38,15.08826434,0.0001252,53.2143,100.0024,101.8775,258.2357,0.00027718,4.125e-05,0.0,0 STARLINK-3654,1 52003U 22025AZ  24140.13933845  .00004125  00000-0  27718-3 0  9998,2 52003  53.2143 100.0024 0001252 101.8775 258.2357 15.08826434122868,6917.922,95.438,540.653,538.921,0.0
52003.0,STARLINK-3654,PAYLOAD,2024-05-20 04:46:49,15.08856126,0.000124,53.2151,95.2441,100.7586,259.3546,0.0011588,0.00018211,0.0,0 STARLINK-3654,1 52003U 22025AZ  24141.19918047  .00018211  00000-0  11588-2 0  9990,2 52003  53.2151  95.2441 0001240 100.7586 259.3546 15.08856126123022,6917.831,95.437,540.554,538.838,0.0
52003.0,STARLINK-3654,PAYLOAD,2024-05-20 20:40:40,15.08855962,0.0001575,53.2159,92.2739,78.2429,281.874,0.0007339,0.00011416,0.0,0 STARLINK-3654,1 52003U 22025AZ  24141.86157922  .00011416  00000-0  73390-3 0  9991,2 52003  53.2159  92.2739 0001575  78.2429 281.8740 15.08855962123127,6917.832,95.437,540.786,538.607,0.0
52003.0,STARLINK-3654,PAYLOAD,2024-05-21 03:02:13,15.088429,0.0001384,53.2166,91.0785,89.8487,270.2663,0.00014359,1.998e-05,0.0,0 STARLINK-3654,1 52003U 22025AZ  24142.12654030  .00001998  00000-0  14359-3 0  9997,2 52003  53.2166  91.0785 0001384  89.8487 270.2663 15.08842900123161,6917.872,95.437,540.694,538.779,0.0
52003.0,STARLINK-3654,PAYLOAD,2024-05-22 06:03:46,15.08846169,0.0001304,53.2168,86.0246,92.8001,267.314,6.4964e-05,7.46e-06,0.0,0 STARLINK-3654,1 52003U 22025AZ  24143.25261776  .00000746  00000-0  64964-4 0  9991,2 52003  53.2168  86.0246 0001304  92.8001 267.3140 15.08846169123334,6917.862,95.437,540.629,538.824,0.0
52003.0,STARLINK-3654,PAYLOAD,2024-05-23 02:43:46,15.08847176,0.0001279,53.2174,82.159,92.5907,267.5232,0.00017052,2.427e-05,0.0,0 STARLINK-3654,1 52003U 22025AZ  24144.11373163  .00002427  00000-0  17052-3 0  9994,2 52003  53.2174  82.1590 0001279  92.5907 267.5232 15.08847176121952,6917.858,95.437,540.608,538.839,0.0
52003.0,STARLINK-3654,PAYLOAD,2024-05-24 00:59:10,15.08840398,0.0001357,53.2177,77.9963,102.316,257.7985,3.5812e-05,2.82e-06,0.0,0 STARLINK-3654,1 52003U 22025AZ  24145.04109711  .00000282  00000-0  35812-4 0  9995,2 52003  53.2177  77.9963 0001357 102.3160 257.7985 15.08840398123608,6917.879,95.438,540.683,538.805,0.0
